{
  "type": "FeatureCollection",
  "features": [
    {
      "type": "Feature",
      "properties": {
        "norad_id": 40938,
        "name": "BEIDOU-3S IGSO-2S (C56)",
        "group": "gnss",
        "lat": -48.99249538874116,
        "lon": -177.7660226784301,
        "alt_km": 35785.85611255012,
        "timestamp": "2025-12-18T23:35:49.301014+00:00",
        "meta_object_name": "BEIDOU-3S IGSO-2S (C56)",
        "meta_object_id": "2015-053A",
        "meta_epoch": "2025-12-18T16:16:13.469952",
        "meta_mean_motion": 1.0026889,
        "meta_eccentricity": 0.00604868,
        "meta_inclination": 49.5013,
        "meta_ra_of_asc_node": 260.9354,
        "meta_arg_of_pericenter": 188.6566,
        "meta_mean_anomaly": 337.9094,
        "meta_ephemeris_type": 0,
        "meta_classification_type": "U",
        "meta_norad_cat_id": 40938,
        "meta_element_set_no": 999,
        "meta_rev_at_epoch": 3754,
        "meta_bstar": 0,
        "meta_mean_motion_dot": -1.18e-06,
        "meta_mean_motion_ddot": 0,
        "tle_line1": "1 40938U 15053A   25352.67793368 -.00000118  00000+0  00000+0 0  9993",
        "tle_line2": "2 40938  49.5013 260.9354 0060486 188.6566 337.9094  1.00268890 37549"
      },
      "geometry": {
        "type": "Point",
        "coordinates": [
          -177.7660226784301,
          -48.99249538874116
        ]
      }
    },
    {
      "type": "Feature",
      "properties": {
        "norad_id": 41019,
        "name": "GPS BIIF-11 (PRN 10)",
        "group": "gnss",
        "lat": 36.109695933044954,
        "lon": -170.68418406806006,
        "alt_km": 20199.471969583414,
        "timestamp": "2025-12-18T23:35:49.301026+00:00",
        "meta_object_name": "GPS BIIF-11 (PRN 10)",
        "meta_object_id": "2015-062A",
        "meta_epoch": "2025-12-18T07:03:43.989696",
        "meta_mean_motion": 2.00567221,
        "meta_eccentricity": 0.0110964,
        "meta_inclination": 56.8362,
        "meta_ra_of_asc_node": 37.7874,
        "meta_arg_of_pericenter": 230.0867,
        "meta_mean_anomaly": 128.9943,
        "meta_ephemeris_type": 0,
        "meta_classification_type": "U",
        "meta_norad_cat_id": 41019,
        "meta_element_set_no": 999,
        "meta_rev_at_epoch": 7420,
        "meta_bstar": 0,
        "meta_mean_motion_dot": -6.9e-07,
        "meta_mean_motion_ddot": 0,
        "tle_line1": "1 41019U 15062A   25352.29425914 -.00000069  00000+0  00000+0 0  9996",
        "tle_line2": "2 41019  56.8362  37.7874 0110964 230.0867 128.9943  2.00567221 74204"
      },
      "geometry": {
        "type": "Point",
        "coordinates": [
          -170.68418406806006,
          36.109695933044954
        ]
      }
    },
    {
      "type": "Feature",
      "properties": {
        "norad_id": 41028,
        "name": "GSAT-15 (GAGAN/PRN 139)",
        "group": "gnss",
        "lat": -0.030414905439596636,
        "lon": 175.2502114957072,
        "alt_km": 35780.44876581485,
        "timestamp": "2025-12-18T23:35:49.301039+00:00",
        "meta_object_name": "GSAT-15 (GAGAN/PRN 139)",
        "meta_object_id": "2015-065A",
        "meta_epoch": "2025-12-18T13:44:24.120096",
        "meta_mean_motion": 1.00271541,
        "meta_eccentricity": 0.00025481,
        "meta_inclination": 0.0334,
        "meta_ra_of_asc_node": 270.0233,
        "meta_arg_of_pericenter": 322.7004,
        "meta_mean_anomaly": 154.3033,
        "meta_ephemeris_type": 0,
        "meta_classification_type": "U",
        "meta_norad_cat_id": 41028,
        "meta_element_set_no": 999,
        "meta_rev_at_epoch": 3698,
        "meta_bstar": 0,
        "meta_mean_motion_dot": -2.33e-06,
        "meta_mean_motion_ddot": 0,
        "tle_line1": "1 41028U 15065A   25352.57250139 -.00000233  00000+0  00000+0 0  9998",
        "tle_line2": "2 41028   0.0334 270.0233 0002548 322.7004 154.3033  1.00271541 36987"
      },
      "geometry": {
        "type": "Point",
        "coordinates": [
          175.2502114957072,
          -0.030414905439596636
        ]
      }
    },
    {
      "type": "Feature",
      "properties": {
        "norad_id": 41174,
        "name": "GSAT0209 (GALILEO 12)",
        "group": "gnss",
        "lat": 12.971394083588333,
        "lon": 115.22960063939831,
        "alt_km": 23214.259477837793,
        "timestamp": "2025-12-18T23:35:49.301050+00:00",
        "meta_object_name": "GSAT0209 (GALILEO 12)",
        "meta_object_id": "2015-079A",
        "meta_epoch": "2025-12-17T18:49:30.009504",
        "meta_mean_motion": 1.70474581,
        "meta_eccentricity": 0.00024688,
        "meta_inclination": 55.7156,
        "meta_ra_of_asc_node": 106.2426,
        "meta_arg_of_pericenter": 347.1145,
        "meta_mean_anomaly": 12.8381,
        "meta_ephemeris_type": 0,
        "meta_classification_type": "U",
        "meta_norad_cat_id": 41174,
        "meta_element_set_no": 999,
        "meta_rev_at_epoch": 6168,
        "meta_bstar": 0,
        "meta_mean_motion_dot": -9e-08,
        "meta_mean_motion_ddot": 0,
        "tle_line1": "1 41174U 15079A   25351.78437511 -.00000009  00000+0  00000+0 0  9999",
        "tle_line2": "2 41174  55.7156 106.2426 0002468 347.1145  12.8381  1.70474581 61685"
      },
      "geometry": {
        "type": "Point",
        "coordinates": [
          115.22960063939831,
          12.971394083588333
        ]
      }
    },
    {
      "type": "Feature",
      "properties": {
        "norad_id": 41175,
        "name": "GSAT0208 (GALILEO 11)",
        "group": "gnss",
        "lat": -46.07892135104548,
        "lon": -28.76897261288779,
        "alt_km": 23229.88357695784,
        "timestamp": "2025-12-18T23:35:49.301061+00:00",
        "meta_object_name": "GSAT0208 (GALILEO 11)",
        "meta_object_id": "2015-079B",
        "meta_epoch": "2025-12-18T00:06:32.261184",
        "meta_mean_motion": 1.70474394,
        "meta_eccentricity": 0.00019057,
        "meta_inclination": 55.7144,
        "meta_ra_of_asc_node": 106.2337,
        "meta_arg_of_pericenter": 356.5595,
        "meta_mean_anomaly": 3.3982,
        "meta_ephemeris_type": 0,
        "meta_classification_type": "U",
        "meta_norad_cat_id": 41175,
        "meta_element_set_no": 999,
        "meta_rev_at_epoch": 6210,
        "meta_bstar": 0,
        "meta_mean_motion_dot": -8e-08,
        "meta_mean_motion_ddot": 0,
        "tle_line1": "1 41175U 15079B   25352.00454006 -.00000008  00000+0  00000+0 0  9993",
        "tle_line2": "2 41175  55.7144 106.2337 0001905 356.5595   3.3982  1.70474394 62104"
      },
      "geometry": {
        "type": "Point",
        "coordinates": [
          -28.76897261288779,
          -46.07892135104548
        ]
      }
    },
    {
      "type": "Feature",
      "properties": {
        "norad_id": 41241,
        "name": "IRNSS-1E",
        "group": "gnss",
        "lat": 24.182788698588492,
        "lon": -161.6486633561186,
        "alt_km": 35734.14477143682,
        "timestamp": "2025-12-18T23:35:49.301073+00:00",
        "meta_object_name": "IRNSS-1E",
        "meta_object_id": "2016-003A",
        "meta_epoch": "2025-12-18T14:48:50.843232",
        "meta_mean_motion": 1.00271358,
        "meta_eccentricity": 0.00216611,
        "meta_inclination": 32.8383,
        "meta_ra_of_asc_node": 62.3675,
        "meta_arg_of_pericenter": 188.4275,
        "meta_mean_anomaly": 170.6574,
        "meta_ephemeris_type": 0,
        "meta_classification_type": "U",
        "meta_norad_cat_id": 41241,
        "meta_element_set_no": 999,
        "meta_rev_at_epoch": 3626,
        "meta_bstar": 0,
        "meta_mean_motion_dot": -3.05e-06,
        "meta_mean_motion_ddot": 0,
        "tle_line1": "1 41241U 16003A   25352.61725513 -.00000305  00000+0  00000+0 0  9996",
        "tle_line2": "2 41241  32.8383  62.3675 0021661 188.4275 170.6574  1.00271358 36265"
      },
      "geometry": {
        "type": "Point",
        "coordinates": [
          -161.6486633561186,
          24.182788698588492
        ]
      }
    },
    {
      "type": "Feature",
      "properties": {
        "norad_id": 41328,
        "name": "GPS BIIF-12 (PRN 32)",
        "group": "gnss",
        "lat": 53.23143231820465,
        "lon": 163.85738714411815,
        "alt_km": 20415.128716279076,
        "timestamp": "2025-12-18T23:35:49.301087+00:00",
        "meta_object_name": "GPS BIIF-12 (PRN 32)",
        "meta_object_id": "2016-007A",
        "meta_epoch": "2025-12-18T09:02:43.184544",
        "meta_mean_motion": 2.00560483,
        "meta_eccentricity": 0.00924431,
        "meta_inclination": 55.4093,
        "meta_ra_of_asc_node": 96.6333,
        "meta_arg_of_pericenter": 243.7073,
        "meta_mean_anomaly": 115.3258,
        "meta_ephemeris_type": 0,
        "meta_classification_type": "U",
        "meta_norad_cat_id": 41328,
        "meta_element_set_no": 999,
        "meta_rev_at_epoch": 7221,
        "meta_bstar": 0,
        "meta_mean_motion_dot": -3.5e-07,
        "meta_mean_motion_ddot": 0,
        "tle_line1": "1 41328U 16007A   25352.37688871 -.00000035  00000+0  00000+0 0  9994",
        "tle_line2": "2 41328  55.4093  96.6333 0092443 243.7073 115.3258  2.00560483 72219"
      },
      "geometry": {
        "type": "Point",
        "coordinates": [
          163.85738714411815,
          53.23143231820465
        ]
      }
    }
  ]
}